IRIDIUM 106             
1 41917U 17003A   24345.48229391  .00000236  00000+0  77157-4 0  9990
2 41917  86.3953 319.9154 0001873  85.5728 274.5681 14.34218447413845
IRIDIUM 103             
1 41918U 17003B   24345.46960359  .00000725  00000+0  25199-3 0  9996
2 41918  86.3956 319.8220 0002439  70.1160 290.0298 14.34213539413878
IRIDIUM 109             
1 41919U 17003C   24345.47595259  .00000230  00000+0  74909-4 0  9996
2 41919  86.3956 319.8699 0002448  86.8161 273.3314 14.34218169413859
IRIDIUM 102             
1 41920U 17003D   24345.09539684  .00000212  00000+0  68729-4 0  9999
2 41920  86.3954 319.9642 0002262  89.9399 270.2056 14.34212913413860
IRIDIUM 105             
1 41921U 17003E   24344.78706000  .00000322  00000+0  10799-3 0  9998
2 41921  86.3954 288.5124 0002157  84.2257 275.9185 14.34221388415673
IRIDIUM 104             
1 41922U 17003F   24344.89877314  .00000588  00000+0  20284-3 0  9992
2 41922  86.3955 320.0805 0002832  83.7935 276.3584 14.34221048413826
IRIDIUM 114             
1 41923U 17003G   24345.18419273  .00000517  00000+0  17750-3 0  9998
2 41923  86.3956 319.9466 0002252  79.7933 280.3517 14.34218227413867
IRIDIUM 108             
1 41924U 17003H   24344.93340769  .00000763  00000+0  26555-3 0  9990
2 41924  86.3952 288.3648 0001997  84.9346 275.2077 14.34216813415669
